[{"OBJECT_NAME":"TIANMU-1 19","OBJECT_ID":"2023-208A","EPOCH":"2026-03-09T22:13:36.801696","MEAN_MOTION":15.2984143,"ECCENTRICITY":0.00039292,"INCLINATION":97.4383,"RA_OF_ASC_NODE":184.9132,"ARG_OF_PERICENTER":316.2611,"MEAN_ANOMALY":43.8317,"EPHEMERIS_TYPE":0,"CLASSIFICATION_TYPE":"U","NORAD_CAT_ID":58660,"ELEMENT_SET_NO":999,"REV_AT_EPOCH":12214,"BSTAR":0.00040995676,"MEAN_MOTION_DOT":0.00011779,"MEAN_MOTION_DDOT":0},{"OBJECT_NAME":"STARLINK-34983","OBJECT_ID":"2025-192H","EPOCH":"2026-03-09T16:02:59.594784","MEAN_MOTION":15.31032253,"ECCENTRICITY":9.997e-5,"INCLINATION":53.1603,"RA_OF_ASC_NODE":232.2609,"ARG_OF_PERICENTER":75.2224,"MEAN_ANOMALY":284.8888,"EPHEMERIS_TYPE":0,"CLASSIFICATION_TYPE":"U","NORAD_CAT_ID":65411,"ELEMENT_SET_NO":999,"REV_AT_EPOCH":2938,"BSTAR":0.0015107501,"MEAN_MOTION_DOT":0.00045835,"MEAN_MOTION_DDOT":0}]
